{
  "type": "FeatureCollection",
  "features": [
    {
      "type": "Feature",
      "properties": {
        "norad_id": 58655,
        "name": "BEIDOU-3 M26 (C48)",
        "group": "beidou",
        "lat": 53.21504504080697,
        "lon": 134.47177678006605,
        "alt_km": 21533.428595047906,
        "timestamp": "2025-12-24T03:53:29.912869+00:00",
        "meta_object_name": "BEIDOU-3 M26 (C48)",
        "meta_object_id": "2023-207B",
        "meta_epoch": "2025-12-22T10:30:28.265760",
        "meta_mean_motion": 1.8623125,
        "meta_eccentricity": 0.00041674,
        "meta_inclination": 55.5947,
        "meta_ra_of_asc_node": 68.2592,
        "meta_arg_of_pericenter": 260.2185,
        "meta_mean_anomaly": 99.7849,
        "meta_ephemeris_type": 0,
        "meta_classification_type": "U",
        "meta_norad_cat_id": 58655,
        "meta_element_set_no": 999,
        "meta_rev_at_epoch": 1353,
        "meta_bstar": 0,
        "meta_mean_motion_dot": -3e-07,
        "meta_mean_motion_ddot": 0,
        "tle_line1": "1 58655U 23207B   25356.43782715 -.00000030  00000+0  00000+0 0  9993",
        "tle_line2": "2 58655  55.5947  68.2592 0004167 260.2185  99.7849  1.86231250 13536"
      },
      "geometry": {
        "type": "Point",
        "coordinates": [
          134.47177678006605,
          53.21504504080697
        ]
      }
    },
    {
      "type": "Feature",
      "properties": {
        "norad_id": 61186,
        "name": "BEIDOU-3 M25 (C47)",
        "group": "beidou",
        "lat": -10.516472795781832,
        "lon": 135.8750603953083,
        "alt_km": 21534.199168533454,
        "timestamp": "2025-12-24T03:53:29.912880+00:00",
        "meta_object_name": "BEIDOU-3 M25 (C47)",
        "meta_object_id": "2024-168B",
        "meta_epoch": "2025-12-23T15:27:08.107776",
        "meta_mean_motion": 1.86230111,
        "meta_eccentricity": 0.0005435,
        "meta_inclination": 54.6324,
        "meta_ra_of_asc_node": 308.3432,
        "meta_arg_of_pericenter": 299.8932,
        "meta_mean_anomaly": 265.5562,
        "meta_ephemeris_type": 0,
        "meta_classification_type": "U",
        "meta_norad_cat_id": 61186,
        "meta_element_set_no": 999,
        "meta_rev_at_epoch": 851,
        "meta_bstar": 0,
        "meta_mean_motion_dot": -5.4e-07,
        "meta_mean_motion_ddot": 0,
        "tle_line1": "1 61186U 24168B   25357.64384384 -.00000054  00000+0  00000+0 0  9993",
        "tle_line2": "2 61186  54.6324 308.3432 0005435 299.8932 265.5562  1.86230111  8518"
      },
      "geometry": {
        "type": "Point",
        "coordinates": [
          135.8750603953083,
          -10.516472795781832
        ]
      }
    },
    {
      "type": "Feature",
      "properties": {
        "norad_id": 61187,
        "name": "BEIDOU-3 M27 (C49)",
        "group": "beidou",
        "lat": -25.690282186631922,
        "lon": -71.67095615512653,
        "alt_km": 21524.526700348342,
        "timestamp": "2025-12-24T03:53:29.912891+00:00",
        "meta_object_name": "BEIDOU-3 M27 (C49)",
        "meta_object_id": "2024-168C",
        "meta_epoch": "2025-12-22T20:59:38.843232",
        "meta_mean_motion": 1.8623031,
        "meta_eccentricity": 0.0002551,
        "meta_inclination": 54.6286,
        "meta_ra_of_asc_node": 308.3534,
        "meta_arg_of_pericenter": 340.6202,
        "meta_mean_anomaly": 204.1443,
        "meta_ephemeris_type": 0,
        "meta_classification_type": "U",
        "meta_norad_cat_id": 61187,
        "meta_element_set_no": 999,
        "meta_rev_at_epoch": 597,
        "meta_bstar": 0,
        "meta_mean_motion_dot": -5.6e-07,
        "meta_mean_motion_ddot": 0,
        "tle_line1": "1 61187U 24168C   25356.87475513 -.00000056  00000+0  00000+0 0  9995",
        "tle_line2": "2 61187  54.6286 308.3534 0002551 340.6202 204.1443  1.86230310  5975"
      },
      "geometry": {
        "type": "Point",
        "coordinates": [
          -71.67095615512653,
          -25.690282186631922
        ]
      }
    }
  ]
}